School Name,Misconduct Num,School Police Num,Number of Offenders,Truancy Rate,Female Offenders,Male Offenders,Charter or Public,Address,Address_Upper,City,City_Upper,State,Zip
City CHS,47,0,55,17.54,31,24,Charter,201 Stanwix St,201 STANWIX ST, Pittsburgh, PITTSBURGH,PA,15222
Environmental Charter School at Frick Pa,18,0,16,0,3,13,Charter,829 Milton St,829 MILTON ST, Pittsburgh, PITTSBURGH,PA,15218
Hillhouse Passport,2,0,3,84,2,1,Charter,933 Penn Ave,933 PENN AVE, Pittsburgh, PITTSBURGH,PA,15222
Manchester Academic CS,30,0,23,27.78,11,12,Charter,1214 Liverpool St,1214 LIVERPOOL ST, Pittsburgh, PITTSBURGH,PA,15233
Penn Hills CS of Entrepreneurship,57,0,36,48.72,12,24,Charter,2501 Main St,2501 MAIN ST, Pittsburgh, PITTSBURGH,PA,15235
Propel CS-Hazelwood,10,0,9,39.56,5,4,Charter,5401 Glenwood Ave,5401 GLENWOOD AVE, Pittsburgh, PITTSBURGH,PA,15207
Propel CS-Braddock Hills,60,0,50,62.17,17,33,Charter,1500 Yost Blvd,1500 YOST BLVD, Pittsburgh, PITTSBURGH,PA,15221
Propel CS Homestead,23,0,22,50.71,8,14,Charter,129 E 10th Ave,129 E 10TH AVE, Homestead, HOMESTEAD,PA,15120
Propel CS-East,2,0,2,12.6,2,0,Charter,1611 Monroeville Ave,1611 MONROEVILLE AVE,Turtle Creek,TURTLE CREEK,PA,15145
Propel CS_McKeesport,6,0,6,24.37,4,2,Charter,2412 Versailles Ave,2412 VERSAILLES AVE, McKeesport, MCKEESPORT,PA,15132
Propel CS-Montour,5,0,5,15.59,3,2,Charter,340 Bilmar Dr,340 BILMAR DR, Pittsburgh, PITTSBURGH,PA,15205
Propel CS-Northside,20,0,18,36.78,8,10,Charter,1805 Buena Vista St,1805 BUENA VISTA ST, Pittsburgh, PITTSBURGH,PA,15212
Propel CS-Pitcairn,2,0,2,40.24,0,2,Charter,435 Agatha St,435 AGATHA ST, Pitcairn, PITCAIRN,PA,15140
Provident CS,1,0,1,3.08,0,1,Charter,1400 Troy Hill Rd,1400 TROY HILL RD, Pittsburgh, PITTSBURGH,PA,15212
Spectrum CS,4,0,3,24.24,1,2,Charter,4369 Northern Pike,4369 NORTHERN PIKE, Monroeville, MONROEVILLE,PA,15146
Urban League of Greater Pittsburgh CS,3,0,3,71.24,3,0,Charter,327 North Negley Avenue,327 NORTH NEGLEY AVENUE, Pittsburgh, PITTSBURGH,PA,15206
Urban Pathway K-5 College CS,3,0,3,43.31,1,2,Charter,925 Penn Ave,925 PENN AVE, Pittsburgh, PITTSBURGH,PA,15222
Urban Pathway 6-12 CS,30,0,45,46.53,17,28,Charter,914 Penn Ave # 300,914 PENN AVE # 300, Pittsburgh, PITTSBURGH,PA,15222
Young Scholars of Mckeesport CS,0,0,0,51.16,0,0,Charter,413 Shaw Ave,413 SHAW AVE, McKeesport, MCKEESPORT,PA,15132
Young Scholars of Western PA,132,0,48,34.34,18,30,Charter,600 Newport Dr,600 NEWPORT DR, Pittsburgh, PITTSBURGH,PA,15234
Acmetonia Primary School,0,0.33,0,0.7,0,0,Public,300 Pearl Ave,300 PEARL AVE, Cheswick, CHESWICK,PA,15024
Colfax Upper Elementary School,1,0.33,1,0.96,0,1,Public,430 Colfax St,430 COLFAX ST, Springdale, SPRINGDALE,PA,15144
Springdale JSHS,9,0.34,9,6.89,0,9,Public,501 Butler Rd,501 BUTLER RD, Springdale, SPRINGDALE,PA,15144
Avonworth Elementary School,0,0.8,0,5.64,0,0,Public,1320 Roosevelt Rd,1320 ROOSEVELT RD, Pittsburgh, PITTSBURGH,PA,15237
Avonworth High School,14,1,26,6.36,12,14,Public,304 Josephs Ln,304 JOSEPHS LN, Pittsburgh, PITTSBURGH,PA,15237
Avonworth Middle School,3,1,7,6.86,1,6,Public,256 Josephs Ln,256 JOSEPHS LN, Pittsburgh, PITTSBURGH,PA,15237
Avonworth Primary Center,0,0.5,0,2.88,0,0,Public,1310 Roosevelt Rd,1310 ROOSEVELT RD, Pittsburgh, PITTSBURGH,PA,15237
Baldwin SHS,39,0,44,5.9,13,31,Public,4653 Clairton Blvd,4653 CLAIRTON BLVD, Pittsburgh, PITTSBURGH,PA,15236
Harrison MS,18,0,16,7.91,0,16,Public,129 Windvale Dr,129 WINDVALE DR, Pittsburgh, PITTSBURGH,PA,15236
McAnnulty Elementary School,0,0,0,6.35,0,0,Public,5151 McAnulty Rd,5151 MCANULTY RD, Pittsburgh, PITTSBURGH,PA,15236
Paynter Elementary School,2,0,2,5.45,1,1,Public,3454 Pleasantvue Dr,3454 PLEASANTVUE DR, Pittsburgh, PITTSBURGH,PA,15227
Whitehall Elementary School,31,0,11,8.18,3,8,Public,4900 Curry Rd,4900 CURRY RD, Pittsburgh, PITTSBURGH,PA,15236
Abraham Lincoln ES,0,0,0,0,0,0,Public,1524 Hamilton Rd,1524 HAMILTON RD, Pittsburgh, PITTSBURGH,PA,15234
Benjamin Franklin ES,0,0,0,0,0,0,Public,5400 Florida Ave,5400 FLORIDA AVE, Bethel Park, BETHEL PARK,PA,15102
Bethel Memorial ES,0,0,0,0,0,0,Public,3301 South Park Rd,3301 SOUTH PARK RD, Bethel Park, BETHEL PARK,PA,15102
Bethel Park HS,29,5.5,27,0,14,13,Public,309 Church Rd,309 CHURCH RD, Bethel Park, BETHEL PARK,PA,15102
Independence MS,40,1.5,31,0.6,7,24,Public,2807 Bethel Church Rd,2807 BETHEL CHURCH RD, Bethel Park, BETHEL PARK,PA,15102
Neil Armstrong 5-6 MS,2,1,3,0,0,3,Public,5800 Murray Ave,5800 MURRAY AVE, Bethel Park, BETHEL PARK,PA,15102
William Penn ES,0,0,0,0,0,0,Public,110 Woodlet Ln,110 WOODLET LN, Bethel Park, BETHEL PARK,PA,15102
Brentwood SHS,14,2.5,19,22.91,4,15,Public,3601 Brownsville Rd,3601 BROWNSVILLE RD, Pittsburgh, PITTSBURGH,PA,15227
Elroy Avenue ES,0,0,0,0,0,0,Public,3129 Elroy Ave,3129 ELROY AVE, Brentwood, BRENTWOOD,PA,15227
Moore ES,3,0,3,4.15,1,2,Public,491 N Lamb Blvd,491 N LAMB BLVD, Las Vegas, LAS VEGAS,NV,89110
Carlynton JSHS,56,0,52,0,20,32,Public,435 Kings Hwy,435 KINGS HWY, Carnegie, CARNEGIE,PA,15106
Carnegie ES,26,0,19,0,4,15,Public,301 Franklin Ave,301 FRANKLIN AVE, Carnegie, CARNEGIE,PA,15106
Crafton ES,1,0,1,0,0,1,Public,1874 Crafton Blvd,1874 CRAFTON BLVD, Pittsburgh, PITTSBURGH,PA,15205
Chartiers Valley HS,68,4.5,56,36.96,8,48,Public,50 Thoms Run Rd,50 THOMS RUN RD, Bridgeville, BRIDGEVILLE,PA,15017
Chartiers Valley IS,4,2,5,2.04,0,5,Public,2030 Swallow Hill Rd,2030 SWALLOW HILL RD, Pittsburgh, PITTSBURGH,PA,15220
Chartiers Valley MS,32,1.5,29,3.85,7,22,Public,3005 Grey Fox Cir,3005 GREY FOX CIR, Bridgeville, BRIDGEVILLE,PA,15017
Chartiers Valley PS,11,2,5,8.3,2,3,Public,125 Thoms Run Rd,125 THOMS RUN RD, Bridgeville, BRIDGEVILLE,PA,15017
Clairton ES,2,0,1,37.76,1,0,Public,501 Waddell Ave,501 WADDELL AVE, Clairton, CLAIRTON,PA,15025
Clariton MS/HS,4,0,7,34.41,5,2,Public,501 Waddell Ave,501 WADDELL AVE, Clairton, CLAIRTON,PA,15025
Cornell ES,1,0,2,7.03,0,2,Public,1099 Maple St Ext,1099 MAPLE ST EXT, Coraopolis, CORAOPOLIS,PA,15108
Cornell HS,4,0,6,4.29,5,1,Public,1099 Maple St Ext,1099 MAPLE ST EXT, Coraopolis, CORAOPOLIS,PA,15108
Curtisville PS,2,0.75,1,3.4,0,1,Public,1715 Saxonburg Blvd,1715 SAXONBURG BLVD, Tarentum, TARENTUM,PA,15084
Deer Lakes HS,33,0.75,29,3.95,7,22,Public,163 E Union Rd,163 E UNION RD, Cheswick, CHESWICK,PA,15024
Deer Lakes MS,43,0.75,30,8.07,4,26,Public,17 E Union Rd,17 E UNION RD, Russellton, RUSSELLTON,PA,15076
East Union IS,17,0.75,13,2.36,1,12,Public,57 E Union Rd,57 E UNION RD, Cheswick, CHESWICK,PA,15024
Duquesne Elementary School,52,1,34,33.54,8,26,Public,300 Kennedy Ave,300 KENNEDY AVE, Duquesne, DUQUESNE,PA,15110
East Allegheny JSHS,128,6,142,22.19,61,81,Public,1150 Jacks Run Rd,1150 JACKS RUN RD, North Versailles, NORTH VERSAILLES,PA,15137
Logan Elementary School,51,2,62,27.5,24,38,Public,1154 Jacks Run Rd,1154 JACKS RUN RD, North Versailles, NORTH VERSAILLES,PA,15137
Central ES,0,0,0,0,0,0,Public,4100 Middle Rd,4100 MIDDLE RD, Allison Park, ALLISON PARK,PA,15101
Elizabeth Forward MS,18,0,21,2.12,0,21,Public,401 Rock Run Rd,401 ROCK RUN RD, Elizabeth, ELIZABETH,PA,15037
Elizabeth Forward SHS,16,0,15,6.1,2,13,Public,1000 Weigles Hill Rd,1000 WEIGLES HILL RD, Elizabeth, ELIZABETH,PA,15037
Greenock ES,2,0,2,1.99,0,2,Public,1101 Greenock Buena Vista Rd,1101 GREENOCK BUENA VISTA RD, McKeesport, MCKEESPORT,PA,15135
Mt. Vernon ES,0,0,0,3.54,0,0,Public,2400 Greenock Buena Vista Rd,2400 GREENOCK BUENA VISTA RD, McKeesport, MCKEESPORT,PA,15135
Dorseyville MS,4,0.34,4,15.49,1,3,Public,3732 Saxonburg Blvd,3732 SAXONBURG BLVD, Pittsburgh, PITTSBURGH,PA,15238
Fairview ES,0,0.33,0,0.87,0,0,Public,738 Dorseyville Rd,738 DORSEYVILLE RD, Pittsburgh, PITTSBURGH,PA,15238
Fox Chapel Area HS,13,7,14,11.52,6,8,Public,611 Field Club Rd,611 FIELD CLUB RD, Pittsburgh, PITTSBURGH,PA,15238
Hartwood ES,0,0.33,0,1.42,0,0,Public,3730 Saxonburg Blvd,3730 SAXONBURG BLVD, Pittsburgh, PITTSBURGH,PA,15238
Kerr ES,4,0.15,3,13.18,0,3,Public,341 Kittanning Pike,341 KITTANNING PIKE, Pittsburgh, PITTSBURGH,PA,15215
Ohara ES,0,0.15,0,11.29,0,0,Public,115 Cabin Ln,115 CABIN LN, Pittsburgh, PITTSBURGH,PA,15238
Dr. Cleveland Steward Jr ES,11,1,8,17.34,5,3,Public,5000 Gateway Campus Blvd,5000 GATEWAY CAMPUS BLVD, Monroeville, MONROEVILLE,PA,15146
Evergreen ES,5,1,4,8.09,1,3,Public,3831 Evergreen Dr,3831 EVERGREEN DR, Monroeville, MONROEVILLE,PA,15146
Gateway MS,42,1,35,11.64,14,21,Public,4450 Old William Penn Hwy,4450 OLD WILLIAM PENN HWY, Monroeville, MONROEVILLE,PA,15146
Gateway SHS,90,5,72,14.49,18,54,Public,3000 Gateway Campus Blvd,3000 GATEWAY CAMPUS BLVD, Monroeville, MONROEVILLE,PA,15146
Mosside MS,45,1,35,8.02,13,22,Public,9000 Gateway Campus Blvd,9000 GATEWAY CAMPUS BLVD, Monroeville, MONROEVILLE,PA,15146
Ramsey ES,9,1,8,6.58,2,6,Public,2200 Ramsey Rd,2200 RAMSEY RD, Monroeville, MONROEVILLE,PA,15146
University Park ES,1,1,1,3.18,0,1,Public,320 Noel Dr,320 NOEL DR, Monroeville, MONROEVILLE,PA,15146
Central ES,7,0,5,3.46,1,4,Public,4100 Middle Rd,4100 MIDDLE RD, Allison Park, ALLISON PARK,PA,15101
Hampton High School,8,0,7,2.37,4,3,Public,2929 McCully Rd,2929 MCCULLY RD, Allison Park, ALLISON PARK,PA,15101
Hampton Middle School,0,0,0,1.28,0,0,Public,4589 School Dr,4589 SCHOOL DR, Allison Park, ALLISON PARK,PA,15101
Poff Elementary School,0,0,0,0.34,0,0,Public,2990 Haberlein Rd,2990 HABERLEIN RD, Gibsonia, GIBSONIA,PA,15044
Wyland Elementary,0,0,0,7.71,0,0,Public,2284 Wyland Ave,2284 WYLAND AVE, Allison Park, ALLISON PARK,PA,15101
Grandview Upper Elementary,0,2,0,24.81,0,0,Public,101 E 9th Ave,101 E 9TH AVE, Tarentum, TARENTUM,PA,15084
Highlands MS,10,3,10,26.89,6,4,Public,1350 Broadview Blvd,1350 BROADVIEW BLVD, Natrona Heights, NATRONA HEIGHTS,PA,15065
Highlands SHS,40,5,43,39.47,11,32,Public,1500 Pacific Ave,1500 PACIFIC AVE, Natrona Heights, NATRONA HEIGHTS,PA,15065
Dormont Elementary,0,0.2,0,8.11,0,0,Public,3200 Annapolis Ave,3200 ANNAPOLIS AVE, Pittsburgh, PITTSBURGH,PA,15216
Fred L Aiken Elementary School,0,0.2,0,0.49,0,0,Public,881 Greentree Rd,881 GREENTREE RD, Pittsburgh, PITTSBURGH,PA,15220
Keystone Oaks HS,14,0.7,15,16.5,5,10,Public,1000 Kelton Ave,1000 KELTON AVE, Pittsburgh, PITTSBURGH,PA,15216
Founders Hall MS,5,4.5,5,51.68,4,1,Public,3600 Oneil Blvd,3600 ONEIL BLVD, McKeesport, MCKEESPORT,PA,15132
Francis Mcclure Intermediate School,0,0,0,34.49,0,0,Public,500 Longvue Dr,500 LONGVUE DR, White Oak, WHITE OAK,PA,15131
McKeesport Area SHS,15,5.5,15,42.52,8,7,Public,1960 Eden Park Blvd,1960 EDEN PARK BLVD, McKeesport, MCKEESPORT,PA,15132
Twin Rivers Intermediate School,0,0,0,29.06,0,0,Public,1600 Cornell St,1600 CORNELL ST, McKeesport, MCKEESPORT,PA,15132
Twin Rivers Primary School,0,2,0,22,0,0,Public,1600 Cornell St,1600 CORNELL ST, McKeesport, MCKEESPORT,PA,15132
David E. Williams MS,25,3,24,5.01,4,20,Public,60 Gawaldo Dr,60 GAWALDO DR, Coraopolis, CORAOPOLIS,PA,15108
Forest Grove ES,1,0,1,0,0,1,Public,20 Williams Dr,20 WILLIAMS DR, Coraopolis, CORAOPOLIS,PA,15108
JW Burkett Elementary School,3,0,3,0.46,0,3,Public,5501 Steubenville Pike,5501 STEUBENVILLE PIKE, McKees Rocks, MCKEES ROCKS,PA,15136
Montour High School,57,5,50,1.31,12,38,Public,223 Clever Rd,223 CLEVER RD, McKees Rocks, MCKEES ROCKS,PA,15136
Bonn Meade Elementary School,4,0.12,3,0,0,3,Public,1595 Brodhead Rd,1595 BRODHEAD RD, Coraopolis, CORAOPOLIS,PA,15108
JH Brooks Elementary School,0,0.12,0,0.29,0,0,Public,1720 Hassam Rd,1720 HASSAM RD, Coraopolis, CORAOPOLIS,PA,15108
JA Allard Elementary School,0,0.12,0,0,0,0,Public,170 Shafer Rd,170 SHAFER RD, Coraopolis, CORAOPOLIS,PA,15108
McCormick Elementary School,0,0.12,0,0,0,0,Public,2801 Beaver Grade Rd,2801 BEAVER GRADE RD, Moon Twp, MOON TWP,PA,15108
Moon Area Upper Middle School,15,0.1,14,0,2,12,Public,904 Beaver Grade Rd,904 BEAVER GRADE RD, Coraopolis, CORAOPOLIS,PA,15108
Moon SHS,25,0.2,35,7.1,11,24,Public,8353 University Blvd,8353 UNIVERSITY BLVD, Coraopolis, CORAOPOLIS,PA,15108
Richard J. Hyde Elementary School,0,1.12,0,0,0,0,Public,110 Wallridge Dr,110 WALLRIDGE DR, Moon Twp, MOON TWP,PA,15108
Foster Elementary School,0,0,0,0.83,0,0,Public,700 Vermont Ave,700 VERMONT AVE, Pittsburgh, PITTSBURGH,PA,15234
Hoover Elementary School,0,0,0,1.61,0,0,Public,37 Robb Hollow Rd,37 ROBB HOLLOW RD, Pittsburgh, PITTSBURGH,PA,15243
Howe Elementary School,1,0,1,2.55,0,1,Public,400 Broadmoor Ave,400 BROADMOOR AVE, Mt Lebanon, MT LEBANON,PA,15228
Jefferson Elementary School,0,0,0,3.86,0,0,Public,11 Moffett St,11 MOFFETT ST, Pittsburgh, PITTSBURGH,PA,15243
Jefferson Middle School,2,0,2,0.6,1,1,Public,21 Moffett St,21 MOFFETT ST, Pittsburgh, PITTSBURGH,PA,15243
Lincoln Elementary School,2,0,2,1.89,0,2,Public,2 Ralston Pl,2 RALSTON PL, Pittsburgh, PITTSBURGH,PA,15216
Markham Elementary School,0,0,0,2.81,0,0,Public,165 Crescent Dr,165 CRESCENT DR, Mt Lebanon, MT LEBANON,PA,15228
Mellon Middle School,5,0,5,1.22,0,5,Public,11 Castle Shannon Blvd,11 CASTLE SHANNON BLVD, Pittsburgh, PITTSBURGH,PA,15228
Mt. Lebanon SHS,37,3,34,2.26,13,21,Public,155 Cochran Rd,155 COCHRAN RD, Pittsburgh, PITTSBURGH,PA,15228
Washington Elementary School,0,0,0,1.33,0,0,Public,735 Washington Rd,735 WASHINGTON RD, Pittsburgh, PITTSBURGH,PA,15228
Bradford Woods Elementary School,0,0,0,3.02,0,0,Public,41 Forest Rd,41 FOREST RD, Bradford Woods, BRADFORD WOODS,PA,15015
Carson Middle School,1,0,1,5.16,0,1,Public,200 Hillvue Ln,200 HILLVUE LN, Pittsburgh, PITTSBURGH,PA,15237
Franklin Elementary School,0,0,0,1.59,0,0,Public,2401 Rochester Rd,2401 ROCHESTER RD, Sewickley, SEWICKLEY,PA,15143
Hosack Elementary School,0,0,0,2.33,0,0,Public,9275 Peebles Rd,9275 PEEBLES RD, Allison Park, ALLISON PARK,PA,15101
Ingomar Elementary School,0,0,0,1.59,0,0,Public,602 W Ingomar Rd,602 W INGOMAR RD, Pittsburgh, PITTSBURGH,PA,15237
Ingomar Middle School,2,0,3,1.41,1,2,Public,1521 Ingomar Heights Rd,1521 INGOMAR HEIGHTS RD, Pittsburgh, PITTSBURGH,PA,15237
Marshall Elementary School,0,0,0,2.4,0,0,Public,5135 Wexford Run Rd,5135 WEXFORD RUN RD, Wexford, WEXFORD,PA,15090
Marshall Middle School,0,0,0,1.56,0,0,Public,5145 Wexford Run Rd,5145 WEXFORD RUN RD, Wexford, WEXFORD,PA,15090
McKnight Elementary School,0,0,0,2.8,0,0,Public,500 Cumberland Rd,500 CUMBERLAND RD, Pittsburgh, PITTSBURGH,PA,15237
North Allegheny High School,23,2,26,3.98,6,20,Public,10375 Perry Hwy,10375 PERRY HWY, Wexford, WEXFORD,PA,15090
Peebles Elementary School,0,0,0,1.95,0,0,Public,8625 Peebles School Rd,8625 PEEBLES SCHOOL RD, Pittsburgh, PITTSBURGH,PA,15237
Highcliff Elementary School,0,0,0,0,0,0,Public,156 Peony Ave,156 PEONY AVE, Pittsburgh, PITTSBURGH,PA,15229
North Hills Middle School,0,3,0,0,0,0,Public,55 Rochester Rd,55 ROCHESTER RD, Pittsburgh, PITTSBURGH,PA,15229
North Hills High School,18,3,18,0,4,14,Public,53 Rochester Rd,53 ROCHESTER RD, Pittsburgh, PITTSBURGH,PA,15229
Ross Elementary School,0,0,0,0,0,0,Public,90 Houston Rd,90 HOUSTON RD, Pittsburgh, PITTSBURGH,PA,15237
Westview Elementary School,0,0,0,0,0,0,Public,47 Chalfonte Ave,47 CHALFONTE AVE, Pittsburgh, PITTSBURGH,PA,15229
Avalon ES,4,0,6,40.42,0,6,Public,721 California Ave,721 CALIFORNIA AVE, Pittsburgh, PITTSBURGH,PA,15202
Bellevue ES,8,0,13,29.81,2,11,Public,435 Lincoln Ave,435 LINCOLN AVE, Bellevue, BELLEVUE,PA,15202
Northgate MSHS,22,1,22,30.91,8,14,Public,591 Union Ave,591 UNION AVE, Pittsburgh, PITTSBURGH,PA,15202
Linton MS,72,6,101,20.91,38,63,Public,250 Aster Street,250 ASTER STREET, Penn Hills, PENN HILLS,PA,15235
Penn Hills ES,23,3,30,22.57,13,17,Public,1079 Jefferson Rd,1079 JEFFERSON RD, Penn Hills, PENN HILLS,PA,15235
Penn Hills SHS,122,12,149,28.6,66,83,Public,309 Collins Dr,309 COLLINS DR, Penn Hills, PENN HILLS,PA,15235
Eden Hall Upper Elementary School,0,0,0,4.14,0,0,Public,3900 Bakerstown Rd,3900 BAKERSTOWN RD, Gibsonia, GIBSONIA,PA,15044
Hance Elementary School,0,0,0,0,0,0,Public,5518 Molnar Dr,5518 MOLNAR DR, Gibsonia, GIBSONIA,PA,15044
Pine Richland High School,28,2,29,6.05,8,21,Public,700 Warrendale Rd,700 WARRENDALE RD, Gibsonia, GIBSONIA,PA,15044
Pine Richland MS,15,0,14,4.05,8,6,Public,100 Logan Rd,100 LOGAN RD, Gibsonia, GIBSONIA,PA,15044
Richland Elementary School,0,0,0,2.66,0,0,Public,3811 Bakerstown Rd,3811 BAKERSTOWN RD, Gibsonia, GIBSONIA,PA,15044
Wexford Elementary School,0,0,0,1.94,0,0,Public,250 Brown Rd,250 BROWN RD, Wexford, WEXFORD,PA,15090
Academy at Westinghouse,159,5,204,8.04,107,97,Public,1101 N Murtland St,1101 N MURTLAND ST, Pittsburgh, PITTSBURGH,PA,15208
Alderdice High School,133,5,151,3.86,77,74,Public,2409 Shady Ave,2409 SHADY AVE, Pittsburgh, PITTSBURGH,PA,15217
Allegheny K-5,13,1.08,22,2.85,2,20,Public,810 Arch St,810 ARCH ST, Pittsburgh, PITTSBURGH,PA,15212
Allegheny 6-8,20,1.1,31,9.57,13,18,Public,810 Arch St,810 ARCH ST, Pittsburgh, PITTSBURGH,PA,15212
Arlington K-8,25,2.1,25,11.39,8,17,Public,800 Rectenwald St,800 RECTENWALD ST, Pittsburgh, PITTSBURGH,PA,15210
Arsenal K-5,49,1.08,37,0,14,23,Public,215 39th St,215 39TH ST, Pittsburgh, PITTSBURGH,PA,15201
Arsenal 6-8,17,1.1,21,7.07,9,12,Public,220 40th St,220 40TH ST, Pittsburgh, PITTSBURGH,PA,15201
Banksville K-5,0,0.08,0,2.41,0,0,Public,1001 Carnahan Rd,1001 CARNAHAN RD, Pittsburgh, PITTSBURGH,PA,15216
Beechwood K-5,4,0.08,5,4.18,1,4,Public,810 Rockland Ave,810 ROCKLAND AVE, Pittsburgh, PITTSBURGH,PA,15216
Brashear High School,89,5,143,8.74,55,88,Public,590 Crane Ave,590 CRANE AVE, Pittsburgh, PITTSBURGH,PA,15216
Brookline K-8,3,0.1,3,4.13,2,1,Public,500 Woodbourne Ave,500 WOODBOURNE AVE, Pittsburgh, PITTSBURGH,PA,15226
CAPA 6-12,21,3,28,0,13,15,Public,111 9th St,111 9TH ST, Pittsburgh, PITTSBURGH,PA,15222
Carmalt K-8,14,0.1,12,7.88,4,8,Public,1550 Breining St,1550 BREINING ST, Pittsburgh, PITTSBURGH,PA,15234
Carrick HS,79,5,105,10.47,52,53,Public,125 Parkfield St,125 PARKFIELD ST, Pittsburgh, PITTSBURGH,PA,15210
Classical 6-8,16,2,25,4.32,14,11,Public,1400 Crucible St,1400 CRUCIBLE ST, Pittsburgh, PITTSBURGH,PA,15205
Colfax K-8,18,1.1,16,3.97,8,8,Public,2332 Beechwood Blvd,2332 BEECHWOOD BLVD, Pittsburgh, PITTSBURGH,PA,15217
Concord K-5,5,0.08,7,4.4,2,5,Public,2350 Brownsville Rd,2350 BROWNSVILLE RD, Pittsburgh, PITTSBURGH,PA,15210
Dilworth K-5,2,0.08,2,0,1,1,Public,6200 Stanton Ave,6200 STANTON AVE, Pittsburgh, PITTSBURGH,PA,15206
Faison K-5,8,2.08,6,8.31,1,5,Public,7430 Tioga St,7430 TIOGA ST, Pittsburgh, PITTSBURGH,PA,15208
Fulton K-5,22,0.08,25,4.2,3,22,Public,5799 Hampton St,5799 HAMPTON ST, Pittsburgh, PITTSBURGH,PA,15206
Grandview K-5,10,1.08,18,2.98,3,15,Public,845 McLain St,845 MCLAIN ST, Pittsburgh, PITTSBURGH,PA,15210
Greenfield K-8,10,0.1,12,1.18,1,11,Public,1 Alger St,1 ALGER ST, Pittsburgh, PITTSBURGH,PA,15207
King K-8,32,2.1,34,7.37,16,18,Public,50 Montgomery Pl,50 MONTGOMERY PL, Pittsburgh, PITTSBURGH,PA,15212
Langley K-8,42,2.1,56,8.1,24,32,Public,2940 Sheraden Blvd,2940 SHERADEN BLVD, Pittsburgh, PITTSBURGH,PA,15204
Liberty K-5,27,0.08,37,4.47,16,21,Public,601 Filbert St,601 FILBERT ST, Pittsburgh, PITTSBURGH,PA,15232
Lincoln K-5,16,1.08,22,25.24,8,14,Public,328 Lincoln Ave,328 LINCOLN AVE, Pittsburgh, PITTSBURGH,PA,15206
Linden K-5,4,0.08,8,2.2,4,4,Public,725 S Linden Ave,725 S LINDEN AVE, Pittsburgh, PITTSBURGH,PA,15208
Manchester K-8,18,1.08,18,2.16,4,14,Public,1612 Manhattan St,1612 MANHATTAN ST, Pittsburgh, PITTSBURGH,PA,15233
Mifflin K-8,1,1.1,1,2.27,1,0,Public,1290 Mifflin Rd,1290 MIFFLIN RD, Pittsburgh, PITTSBURGH,PA,15207
Miller K-5,3,1.08,3,1.79,1,2,Public,2055 Bedford Ave,2055 BEDFORD AVE, Pittsburgh, PITTSBURGH,PA,15219
Milliones 6-12,39,5,67,20.26,30,37,Public,3117 Centre Ave,3117 CENTRE AVE, Pittsburgh, PITTSBURGH,PA,15219
Minadeo K-5,12,1.08,13,6.93,2,11,Public,6502 Lilac St,6502 LILAC ST, Pittsburgh, PITTSBURGH,PA,15217
Montesssori K-5,5,1.08,7,1.16,2,5,Public,201 S Graham St,201 S GRAHAM ST, Pittsburgh, PITTSBURGH,PA,15206
Morrow K-8,45,1.1,43,4.83,15,28,Public,1611 Davis Ave,1611 DAVIS AVE, Pittsburgh, PITTSBURGH,PA,15212
Obama 6-12,62,4,94,2.78,70,24,Public,515 N Highland Ave,515 N HIGHLAND AVE, Pittsburgh, PITTSBURGH,PA,15206
Perry High School,93,5,123,8.55,59,64,Public,3875 Perrysville Ave,3875 PERRYSVILLE AVE, Pittsburgh, PITTSBURGH,PA,15214
Phillips K-5,6,0.08,5,7.72,0,5,Public,1901 Sarah St,1901 SARAH ST, Pittsburgh, PITTSBURGH,PA,15203
Roosevelt K-5,11,0.08,23,0,3,20,Public,17 W Cherryhill St,17 W CHERRYHILL ST, Pittsburgh, PITTSBURGH,PA,15210
Schiller 6-8,12,1.1,15,17.16,8,7,Public,1018 Peralta St,1018 PERALTA ST, Pittsburgh, PITTSBURGH,PA,15212
Pittsburgh Science and Technology Academy,32,3,36,4.21,13,23,Public,107 Thackeray Ave,107 THACKERAY AVE, Pittsburgh, PITTSBURGH,PA,15260
Southbrook 6-8,26,1.1,40,0,20,20,Public,779 Dunster St,779 DUNSTER ST, Pittsburgh, PITTSBURGH,PA,15226
South hills 6-8,48,1.1,70,10.71,27,43,Public,595 Crane Ave,595 CRANE AVE, Pittsburgh, PITTSBURGH,PA,15216
Springhill K-5,40,1.1,28,18.6,11,17,Public,1351 Damas St,1351 DAMAS ST, Pittsburgh, PITTSBURGH,PA,15212
Sterrett 6-8,11,1.1,12,5.61,9,3,Public,7100 Reynolds St,7100 REYNOLDS ST, Pittsburgh, PITTSBURGH,PA,15208
Sunnyside K-8,14,0.1,22,0,9,13,Public,4801 Stanton Ave,4801 STANTON AVE, Pittsburgh, PITTSBURGH,PA,15201
Weil K-8,6,1.08,5,0,2,3,Public,2250 Centre Ave,2250 CENTRE AVE, Pittsburgh, PITTSBURGH,PA,15219
West Liberty K-5,6,0.08,4,1.21,0,4,Public,785 Dunster St,785 DUNSTER ST, Pittsburgh, PITTSBURGH,PA,15226
Westwood K-8,0,1.08,0,7.86,0,0,Public,508 Shadyhill Rd,508 SHADYHILL RD, Pittsburgh, PITTSBURGH,PA,15205
Whittier K-5,4,0.08,4,1.38,1,3,Public,150 Meridan St,150 MERIDAN ST, Pittsburgh, PITTSBURGH,PA,15211
Woolslair K-5,1,0.08,1,11.35,0,1,Public,501 40th St,501 40TH ST, Pittsburgh, PITTSBURGH,PA,15224
Center ES,0,0,0,5.05,0,0,Public,201 Center New Texas Rd,201 CENTER NEW TEXAS RD, Plum, PLUM,PA,15239
Holiday Park ES,0,0,0,3.26,0,0,Public,313 Holiday Park Dr,313 HOLIDAY PARK DR, Plum, PLUM,PA,15239
Pivik ES,1,0,1,1.29,1,0,Public,151 School Rd,151 SCHOOL RD, Pittsburgh, PITTSBURGH,PA,15239
Plum SHS,26,0,28,5.49,16,12,Public,900 Elicker Rd,900 ELICKER RD, Pittsburgh, PITTSBURGH,PA,15239
Regency Park ES,0,0,0,1.97,0,0,Public,313 Holiday Park Dr,313 HOLIDAY PARK DR, Plum, PLUM,PA,15239
Edgeworth ES,3,0.25,3,2.23,0,3,Public,200 Meadow Ln,200 MEADOW LN, Edgeworth, EDGEWORTH,PA,15143
Osborn ES,5,0.25,3,1.35,0,3,Public,1414 Beaver St,1414 BEAVER ST, Sewickley, SEWICKLEY,PA,15143
Quaker Valley HS,14,0.25,11,0.16,2,9,Public,625 Beaver St,625 BEAVER ST, Leetsdale, LEETSDALE,PA,15056
Quaker Valley MS,7,0.25,6,0.87,1,5,Public,618 Harbaugh St,618 HARBAUGH ST, Sewickley, SEWICKLEY,PA,15143
Riverview HS,32,0,32,16.44,2,30,Public,100 Hulton Rd,100 HULTON RD, Oakmont, OAKMONT,PA,15139
Tenth Street ES,1,0,1,35.71,0,1,Public,901 Pennsylvania Ave,901 PENNSYLVANIA AVE, Oakmont, OAKMONT,PA,15139
Verner ES,0,0,0,39.89,0,0,Public,700 1st St,700 1ST ST, Verona, VERONA,PA,15147
Burchfield Primary School,0,0.05,0,6.27,0,0,Public,15000 Burchfield Rd,15000 BURCHFIELD RD, Allison Park, ALLISON PARK,PA,15101
Jeffrey Primary School,0,0.05,0,14.04,0,0,Public,201 Wetzel Road,201 WETZEL ROAD, Glenshaw, GLENSHAW,PA,15116
Marzolf Primary School,2,0.05,2,11.83,0,2,Public,101 Marzolf Road,101 MARZOLF ROAD, Pittsburgh, PITTSBURGH,PA,15209
Reserve Primary School,0,0.05,0,13.89,0,0,Public,2107 Lonsdale St,2107 LONSDALE ST, Pittsburgh, PITTSBURGH,PA,15212
Rogers Primary School,0,0.05,0,10.71,0,0,Public,705 Scott Ave,705 SCOTT AVE, Glenshaw, GLENSHAW,PA,15116
Shaler Area Elementary School,0,1.15,0,13.68,0,0,Public,700 Scott Ave,700 SCOTT AVE, Glenshaw, GLENSHAW,PA,15116
Shaler Area High School,92,5.45,80,13.3,17,63,Public,381 Wible Run Rd,381 WIBLE RUN RD, Pittsburgh, PITTSBURGH,PA,15209
Shaler Area Middle School,21,1.15,26,21.8,8,18,Public,1810 Mt. Royal Blvd. Glenshaw,1810 MT. ROYAL BLVD. GLENSHAW, PA. 15116, PA. 15116,,
South Allegheny Early Childhood Center,0,1,0,18.86,0,0,Public,1 Glendale St,1 GLENDALE ST, McKeesport, MCKEESPORT,PA,15133
South Allegheny Elementary School,4,1,5,14.96,0,5,Public,1707 Washington Blvd,1707 WASHINGTON BLVD, McKeesport, MCKEESPORT,PA,15133
South Allegheny MSHS,26,1,31,18.55,9,22,Public,2743 Washington Blvd,2743 WASHINGTON BLVD, McKeesport, MCKEESPORT,PA,15133
South Fayette Intermediate School,1,1,1,0,0,1,Public,1200 Lt Will Way,1200 LT WILL WAY, McDonald, MCDONALD,PA,15057
South Fayette Middle School,0,0.25,0,1.03,0,0,Public,3700 Old Oakdale Rd,3700 OLD OAKDALE RD, McDonald, MCDONALD,PA,15057
South Fayette Township Elementary School,0,0.25,0,0.29,0,0,Public,3620 Old Oakdale Rd,3620 OLD OAKDALE RD, McDonald, MCDONALD,PA,15057
South Fayette Township High School,8,0.25,9,2.2,2,7,Public,3640 Old Oakdale Rd,3640 OLD OAKDALE RD, McDonald, MCDONALD,PA,15057
South Park Elementary Center,25,1,17,0,6,11,Public,2001 Eagle Pride Ln,2001 EAGLE PRIDE LN, South Park Township, SOUTH PARK TOWNSHIP,PA,15129
South Park MS,21,2,22,0,6,16,Public,2500 Stewart Rd,2500 STEWART RD, South Park Township, SOUTH PARK TOWNSHIP,PA,15129
South Park SHS,6,1,6,0,4,2,Public,2005 Eagle Ridge Dr,2005 EAGLE RIDGE DR, South Park Township, SOUTH PARK TOWNSHIP,PA,15129
Barrett Elementary School,7,3,8,49.18,5,3,Public,221 E 12th Ave,221 E 12TH AVE, Homestead, HOMESTEAD,PA,15120
Park Elementary School,1,2,1,18.47,0,1,Public,4102 Main St,4102 MAIN ST, Munhall, MUNHALL,PA,15120
Steel Valley Middle School,3,3.5,3,36.08,2,1,Public,3114 Main St,3114 MAIN ST, Munhall, MUNHALL,PA,15120
Steel Valley High School,4,4.5,5,30.08,0,5,Public,3113 Main St,3113 MAIN ST, Munhall, MUNHALL,PA,15120
Sto Rox JSHS,60,2,83,24.43,23,60,Public,1105 Valley St,1105 VALLEY ST, McKees Rocks, MCKEES ROCKS,PA,15136
Sto Rox Primary Center,0,1,0,20.13,0,0,Public,300 Ewing Rd,300 EWING RD, McKees Rocks, MCKEES ROCKS,PA,15136
Sto Rox Upper Elementary School,21,1,33,13,10,23,Public,298 Ewing Rd,298 EWING RD, McKees Rocks, MCKEES ROCKS,PA,15136
Baker Elementary School,1,0.25,1,2.45,0,1,Public,2300 Morton Rd,2300 MORTON RD, Pittsburgh, PITTSBURGH,PA,15241
Boyce Middle School,3,0.25,3,0.96,1,2,Public,1500 Boyce Rd,1500 BOYCE RD, Pittsburgh, PITTSBURGH,PA,15241
Eisenhower Elementary School,0,0.25,0,0.21,0,0,Public,100 Warwick Dr,100 WARWICK DR, Pittsburgh, PITTSBURGH,PA,15241
Fort Couch Middle School,5,0.25,5,0.42,1,4,Public,515 Fort Couch Rd,515 FORT COUCH RD, Upper St Clair, UPPER ST CLAIR,PA,15241
Streams Elementary School,1,0.25,1,0.2,0,1,Public,1560 Ashlawn Dr,1560 ASHLAWN DR, Pittsburgh, PITTSBURGH,PA,15241
Upper Saint Clair High School,15,3.75,14,0.86,2,12,Public,1825 McLaughlin Run Rd,1825 MCLAUGHLIN RUN RD, Pittsburgh, PITTSBURGH,PA,15241
Donaldson Elementary School,0,0.25,0,0,0,0,Public,600 Donaldson Rd,600 DONALDSON RD, Oakdale, OAKDALE,PA,15071
McKee Elementary School,0,0.25,0,0,0,0,Public,1501 Oakdale Rd,1501 OAKDALE RD, Oakdale, OAKDALE,PA,15071
West Allegheny Middle School,0,0.5,0,0,0,0,Public,207 W Allegheny Rd,207 W ALLEGHENY RD, Imperial, IMPERIAL,PA,15126
West Allegheny SHS,0,1,0,0,0,0,Public,205 W Allegheny Rd,205 W ALLEGHENY RD, Imperial, IMPERIAL,PA,15126
Wilson Elementary School,0,0.25,0,0,0,0,Public,100 Bruno Ln,100 BRUNO LN, Imperial, IMPERIAL,PA,15126
Gill hall Elementary School,0,0,0,0.33,0,0,Public,829 Gill Hall Rd,829 GILL HALL RD, Clairton, CLAIRTON,PA,15025
Jefferson Elementary School,0,0,0,0,0,0,Public,875 Old Clairton Rd,875 OLD CLAIRTON RD, Clairton, CLAIRTON,PA,15025
McClellan Elementary School,0,0,0,0,0,0,Public,360 School Ln,360 SCHOOL LN, Pittsburgh, PITTSBURGH,PA,15236
Pleasant Hills Middle School,2,0,2,0.74,0,2,Public,404 Old Clairton Rd,404 OLD CLAIRTON RD, Pleasant Hills, PLEASANT HILLS,PA,15236
Thomas Jefferson High School,5,2,6,3.26,1,5,Public, 830 Old Clairton Road, 830 OLD CLAIRTON ROAD,Jefferson Hills,JEFFERSON HILLS,PA,15025
Clara Barton Elementary School,0,0,0,24.78,0,0,Public,764 Beverly Dr,764 BEVERLY DR, West Mifflin, WEST MIFFLIN,PA,15122
Homeville Elementary School,0,0,0,23.61,0,0,Public,4315 Eliza St,4315 ELIZA ST, West Mifflin, WEST MIFFLIN,PA,15122
New Emerson Elementary School,0,0,0,19.12,0,0,Public,1922 Pennsylvania Ave,1922 PENNSYLVANIA AVE, West Mifflin, WEST MIFFLIN,PA,15122
West Mifflin Area High School,43,0,57,30.46,22,35,Public,91 Commonwealth Ave,91 COMMONWEALTH AVE, West Mifflin, WEST MIFFLIN,PA,15122
West Mifflin Area Middle School,0,0,0,30.88,0,0,Public,81 Commonwealth Ave,81 COMMONWEALTH AVE, West Mifflin, WEST MIFFLIN,PA,15122
Edgewood Elementary School,1,0,1,39.73,0,1,Public,241 Maple Ave,241 MAPLE AVE, Pittsburgh, PITTSBURGH,PA,15218
Wilkins Elementary School,5,0,6,48.77,2,4,Public,362 Churchill Rd,362 CHURCHILL RD, Pittsburgh, PITTSBURGH,PA,15235
Woodland Hills Intermediate School,12,2,16,51.8,9,7,Public,7600 Evans St,7600 EVANS ST, Pittsburgh, PITTSBURGH,PA,15218
Woodland Hills JSHS,128,16,181,45.78,93,88,Public,2550 Greensburg Pike,2550 GREENSBURG PIKE, Pittsburgh, PITTSBURGH,PA,15218
